{"type": "FeatureCollection", "features": [ {"type": "Feature", "properties": {"norad_id": 33153, "name": "INTELSAT 25 (IS-25)", "group": "intelsat", "lat": 0.9031194481697449, "lon": 106.09937113443996, "alt_km": 35805.41473872229, "timestamp": "2025-12-13T03:42:10.947748+00:00", "meta": {"OBJECT_NAME": "INTELSAT 25 (IS-25)", "OBJECT_ID": "2008-034A", "EPOCH": "2025-12-12T06:28:58.865664", "MEAN_MOTION": 1.00271837, "ECCENTRICITY": 0.00050272, "INCLINATION": 2.2268, "RA_OF_ASC_NODE": 82.6549, "ARG_OF_PERICENTER": 179.1825, "MEAN_ANOMALY": 245.135, "EPHEMERIS_TYPE": 0, "CLASSIFICATION_TYPE": "U", "NORAD_CAT_ID": 33153, "ELEMENT_SET_NO": 999, "REV_AT_EPOCH": 6382, "BSTAR": 0, "MEAN_MOTION_DOT": -2.14e-06, "MEAN_MOTION_DDOT": 0}, "tle": {"line1": "1 33153U 08034A   25346.27012576 -.00000214  00000+0  00000+0 0  9996", "line2": "2 33153   2.2268  82.6549 0005027 179.1825 245.1350  1.00271837 63826"}}, "geometry": {"type": "Point", "coordinates": [106.09937113443996, 0.9031194481697449]}}, {"type": "Feature", "properties": {"norad_id": 33376, "name": "GALAXY 19 (G-19)", "group": "intelsat", "lat": 0.02933809132496896, "lon": 40.64367698901706, "alt_km": 35794.824683231054, "timestamp": "2025-12-13T03:42:10.947761+00:00", "meta": {"OBJECT_NAME": "GALAXY 19 (G-19)", "OBJECT_ID": "2008-045A", "EPOCH": "2025-12-12T06:10:15.657888", "MEAN_MOTION": 1.00269727, "ECCENTRICITY": 0.00026272, "INCLINATION": 0.0173, "RA_OF_ASC_NODE": 351.1534, "ARG_OF_PERICENTER": 272.457, "MEAN_ANOMALY": 173.1617, "EPHEMERIS_TYPE": 0, "CLASSIFICATION_TYPE": "U", "NORAD_CAT_ID": 33376, "ELEMENT_SET_NO": 999, "REV_AT_EPOCH": 6302, "BSTAR": 0, "MEAN_MOTION_DOT": 0, "MEAN_MOTION_DDOT": 0}, "tle": {"line1": "1 33376U 08045A   25346.25712567  .00000000  00000+0  00000+0 0  9992", "line2": "2 33376   0.0173 351.1534 0002627 272.4570 173.1617  1.00269727 63022"}}, "geometry": {"type": "Point", "coordinates": [40.64367698901706, 0.02933809132496896]}}, {"type": "Feature", "properties": {"norad_id": 35493, "name": "FM-5", "group": "intelsat", "lat": 0.027626689467833802, "lon": 51.47680788194733, "alt_km": 35787.46947397753, "timestamp": "2025-12-13T03:42:10.947772+00:00", "meta": {"OBJECT_NAME": "FM-5", "OBJECT_ID": "2009-034A", "EPOCH": "2025-12-11T23:22:27.924384", "MEAN_MOTION": 1.00271483, "ECCENTRICITY": 6.71e-05, "INCLINATION": 0.0165, "RA_OF_ASC_NODE": 292.0867, "ARG_OF_PERICENTER": 235.2397, "MEAN_ANOMALY": 178.0732, "EPHEMERIS_TYPE": 0, "CLASSIFICATION_TYPE": "U", "NORAD_CAT_ID": 35493, "ELEMENT_SET_NO": 999, "REV_AT_EPOCH": 4476, "BSTAR": 0, "MEAN_MOTION_DOT": -1.91e-06, "MEAN_MOTION_DDOT": 0}, "tle": {"line1": "1 35493U 09034A   25345.97393431 -.00000191  00000+0  00000+0 0  9998", "line2": "2 35493   0.0165 292.0867 0000671 235.2397 178.0732  1.00271483 44762"}}, "geometry": {"type": "Point", "coordinates": [51.47680788194733, 0.027626689467833802]}}, {"type": "Feature", "properties": {"norad_id": 36097, "name": "INTELSAT 14 (IS-14)", "group": "intelsat", "lat": 0.0265055334031067, "lon": 92.63249532128147, "alt_km": 35796.55873373256, "timestamp": "2025-12-13T03:42:10.947784+00:00", "meta": {"OBJECT_NAME": "INTELSAT 14 (IS-14)", "OBJECT_ID": "2009-064A", "EPOCH": "2025-12-12T06:25:06.735648", "MEAN_MOTION": 1.00272471, "ECCENTRICITY": 0.00025152, "INCLINATION": 0.0139, "RA_OF_ASC_NODE": 26.9642, "ARG_OF_PERICENTER": 239.2791, "MEAN_ANOMALY": 226.2559, "EPHEMERIS_TYPE": 0, "CLASSIFICATION_TYPE": "U", "NORAD_CAT_ID": 36097, "ELEMENT_SET_NO": 999, "REV_AT_EPOCH": 5873, "BSTAR": 0, "MEAN_MOTION_DOT": -2.63e-06, "MEAN_MOTION_DDOT": 0}, "tle": {"line1": "1 36097U 09064A   25346.26743907 -.00000263  00000+0  00000+0 0  9992", "line2": "2 36097   0.0139  26.9642 0002515 239.2791 226.2559  1.00272471 58733"}}, "geometry": {"type": "Point", "coordinates": [92.63249532128147, 0.0265055334031067]}}, {"type": "Feature", "properties": {"norad_id": 36106, "name": "INTELSAT 15 (IS-15)", "group": "intelsat", "lat": -0.0330785010381426, "lon": -137.2371636437024, "alt_km": 35779.00662311989, "timestamp": "2025-12-13T03:42:10.947796+00:00", "meta": {"OBJECT_NAME": "INTELSAT 15 (IS-15)", "OBJECT_ID": "2009-067A", "EPOCH": "2025-12-12T01:54:01.095840", "MEAN_MOTION": 1.00272349, "ECCENTRICITY": 0.00023524, "INCLINATION": 0.0211, "RA_OF_ASC_NODE": 292.3297, "ARG_OF_PERICENTER": 335.9709, "MEAN_ANOMALY": 286.3858, "EPHEMERIS_TYPE": 0, "CLASSIFICATION_TYPE": "U", "NORAD_CAT_ID": 36106, "ELEMENT_SET_NO": 999, "REV_AT_EPOCH": 3935, "BSTAR": 0, "MEAN_MOTION_DOT": -1.76e-06, "MEAN_MOTION_DDOT": 0}, "tle": {"line1": "1 36106U 09067A   25346.07917935 -.00000176  00000+0  00000+0 0  9992", "line2": "2 36106   0.0211 292.3297 0002352 335.9709 286.3858  1.00272349 39352"}}, "geometry": {"type": "Point", "coordinates": [-137.2371636437024, -0.0330785010381426]}}, {"type": "Feature", "properties": {"norad_id": 36131, "name": "DIRECTV 12", "group": "intelsat", "lat": -0.021803646004149038, "lon": 34.91722141611338, "alt_km": 35783.95277576942, "timestamp": "2025-12-13T03:42:10.947808+00:00", "meta": {"OBJECT_NAME": "DIRECTV 12", "OBJECT_ID": "2009-075A", "EPOCH": "2025-12-12T06:08:38.312736", "MEAN_MOTION": 1.00272296, "ECCENTRICITY": 5.614e-05, "INCLINATION": 0.0427, "RA_OF_ASC_NODE": 132.0046, "ARG_OF_PERICENTER": 230.7625, "MEAN_ANOMALY": 67.8805, "EPHEMERIS_TYPE": 0, "CLASSIFICATION_TYPE": "U", "NORAD_CAT_ID": 36131, "ELEMENT_SET_NO": 999, "REV_AT_EPOCH": 4467, "BSTAR": 0, "MEAN_MOTION_DOT": -9.4e-07, "MEAN_MOTION_DDOT": 0}, "tle": {"line1": "1 36131U 09075A   25346.25599899 -.00000094  00000+0  00000+0 0  9993", "line2": "2 36131   0.0427 132.0046 0000561 230.7625  67.8805  1.00272296 44676"}}, "geometry": {"type": "Point", "coordinates": [34.91722141611338, -0.021803646004149038]}}, {"type": "Feature", "properties": {"norad_id": 36397, "name": "INTELSAT 16 (IS-16)", "group": "intelsat", "lat": 0.027382519636986354, "lon": 61.44338936675088, "alt_km": 35794.2610787083, "timestamp": "2025-12-13T03:42:10.947820+00:00", "meta": {"OBJECT_NAME": "INTELSAT 16 (IS-16)", "OBJECT_ID": "2010-006A", "EPOCH": "2025-12-12T06:16:07.596192", "MEAN_MOTION": 1.0027224, "ECCENTRICITY": 0.00020928, "INCLINATION": 0.009, "RA_OF_ASC_NODE": 331.8261, "ARG_OF_PERICENTER": 291.3327, "MEAN_ANOMALY": 195.8873, "EPHEMERIS_TYPE": 0, "CLASSIFICATION_TYPE": "U", "NORAD_CAT_ID": 36397, "ELEMENT_SET_NO": 999, "REV_AT_EPOCH": 5778, "BSTAR": 0, "MEAN_MOTION_DOT": -2.35e-06, "MEAN_MOTION_DDOT": 0}, "tle": {"line1": "1 36397U 10006A   25346.26119903 -.00000235  00000+0  00000+0 0  9995", "line2": "2 36397   0.0090 331.8261 0002092 291.3327 195.8873  1.00272240 57789"}}, "geometry": {"type": "Point", "coordinates": [61.44338936675088, 0.027382519636986354]}}, {"type": "Feature", "properties": {"norad_id": 37185, "name": "XM-5", "group": "intelsat", "lat": 0.06592667065675265, "lon": 22.422321771969177, "alt_km": 35789.70891808679, "timestamp": "2025-12-13T03:42:10.947832+00:00", "meta": {"OBJECT_NAME": "XM-5", "OBJECT_ID": "2010-053A", "EPOCH": "2025-12-12T03:46:38.737056", "MEAN_MOTION": 1.00272664, "ECCENTRICITY": 0.0001561, "INCLINATION": 0.0596, "RA_OF_ASC_NODE": 272.3532, "ARG_OF_PERICENTER": 236.8409, "MEAN_ANOMALY": 233.3792, "EPHEMERIS_TYPE": 0, "CLASSIFICATION_TYPE": "U", "NORAD_CAT_ID": 37185, "ELEMENT_SET_NO": 999, "REV_AT_EPOCH": 5560, "BSTAR": 0, "MEAN_MOTION_DOT": -1.4e-07, "MEAN_MOTION_DDOT": 0}, "tle": {"line1": "1 37185U 10053A   25346.15739279 -.00000014  00000+0  00000+0 0  9990", "line2": "2 37185   0.0596 272.3532 0001561 236.8409 233.3792  1.00272664 55608"}}, "geometry": {"type": "Point", "coordinates": [22.422321771969177, 0.06592667065675265]}}, {"type": "Feature", "properties": {"norad_id": 37238, "name": "INTELSAT 17 (IS-17)", "group": "intelsat", "lat": -0.022024367493756816, "lon": -156.38624433334547, "alt_km": 35780.64902120123, "timestamp": "2025-12-13T03:42:10.947845+00:00", "meta": {"OBJECT_NAME": "INTELSAT 17 (IS-17)", "OBJECT_ID": "2010-065B", "EPOCH": "2025-12-12T05:13:51.060576", "MEAN_MOTION": 1.00271326, "ECCENTRICITY": 0.00025201, "INCLINATION": 0.009, "RA_OF_ASC_NODE": 304.4439, "ARG_OF_PERICENTER": 318.0417, "MEAN_ANOMALY": 323.1553, "EPHEMERIS_TYPE": 0, "CLASSIFICATION_TYPE": "U", "NORAD_CAT_ID": 37238, "ELEMENT_SET_NO": 999, "REV_AT_EPOCH": 5137, "BSTAR": 0, "MEAN_MOTION_DOT": 8e-08, "MEAN_MOTION_DDOT": 0}, "tle": {"line1": "1 37238U 10065B   25346.21795209  .00000008  00000+0  00000+0 0  9996", "line2": "2 37238   0.0090 304.4439 0002520 318.0417 323.1553  1.00271326 51374"}}, "geometry": {"type": "Point", "coordinates": [-156.38624433334547, -0.022024367493756816]}}, {"type": "Feature", "properties": {"norad_id": 37392, "name": "INTELSAT 28 (IS-28)", "group": "intelsat", "lat": 0.4877518192762144, "lon": 105.9261160552677, "alt_km": 35800.78926189017, "timestamp": "2025-12-13T03:42:10.947857+00:00", "meta": {"OBJECT_NAME": "INTELSAT 28 (IS-28)", "OBJECT_ID": "2011-016A", "EPOCH": "2025-12-12T06:28:51.378240", "MEAN_MOTION": 1.00273226, "ECCENTRICITY": 0.00038117, "INCLINATION": 1.3236, "RA_OF_ASC_NODE": 85.0564, "ARG_OF_PERICENTER": 180.3773, "MEAN_ANOMALY": 241.3113, "EPHEMERIS_TYPE": 0, "CLASSIFICATION_TYPE": "U", "NORAD_CAT_ID": 37392, "ELEMENT_SET_NO": 999, "REV_AT_EPOCH": 5141, "BSTAR": 0, "MEAN_MOTION_DOT": -2.15e-06, "MEAN_MOTION_DDOT": 0}, "tle": {"line1": "1 37392U 11016A   25346.27003910 -.00000215  00000+0  00000+0 0  9992", "line2": "2 37392   1.3236  85.0564 0003811 180.3773 241.3113  1.00273226 51410"}}, "geometry": {"type": "Point", "coordinates": [105.9261160552677, 0.4877518192762144]}}]}